{"type": "FeatureCollection", "features": [ {"type": "Feature", "properties": {"norad_id": 34818, "name": "COSMOS 2251 DEB", "group": "cosmos-2251-debris", "lat": -73.41059940440174, "lon": -119.91009106178377, "alt_km": 783.4065959352138, "timestamp": "2025-12-03T10:52:57.851552+00:00", "meta": {"OBJECT_NAME": "COSMOS 2251 DEB", "OBJECT_ID": "1993-036ABH", "EPOCH": "2025-12-02T09:14:30.798816", "MEAN_MOTION": 14.36943811, "ECCENTRICITY": 0.00237378, "INCLINATION": 74.0353, "RA_OF_ASC_NODE": 315.979, "ARG_OF_PERICENTER": 34.4087, "MEAN_ANOMALY": 115.9286, "EPHEMERIS_TYPE": 0, "CLASSIFICATION_TYPE": "U", "NORAD_CAT_ID": 34818, "ELEMENT_SET_NO": 999, "REV_AT_EPOCH": 87221, "BSTAR": 0.00031365968, "MEAN_MOTION_DOT": 9.06e-06, "MEAN_MOTION_DDOT": 0}, "tle": {"line1": "1 34818U 93036ABH 25336.38507869  .00000906  00000+0  31366-3 0  9996", "line2": "2 34818  74.0353 315.9790 0023737  34.4087 115.9286 14.36943811872212"}}, "geometry": {"type": "Point", "coordinates": [-119.91009106178377, -73.41059940440174]}}, {"type": "Feature", "properties": {"norad_id": 34819, "name": "COSMOS 2251 DEB", "group": "cosmos-2251-debris", "lat": 13.776398113833388, "lon": 164.53704506568002, "alt_km": 687.6070823667587, "timestamp": "2025-12-03T10:52:57.851562+00:00", "meta": {"OBJECT_NAME": "COSMOS 2251 DEB", "OBJECT_ID": "1993-036ABJ", "EPOCH": "2025-12-02T18:29:12.592032", "MEAN_MOTION": 14.63718476, "ECCENTRICITY": 0.0016073, "INCLINATION": 74.0168, "RA_OF_ASC_NODE": 161.8196, "ARG_OF_PERICENTER": 255.2958, "MEAN_ANOMALY": 120.6176, "EPHEMERIS_TYPE": 0, "CLASSIFICATION_TYPE": "U", "NORAD_CAT_ID": 34819, "ELEMENT_SET_NO": 999, "REV_AT_EPOCH": 88083, "BSTAR": 0.0017732, "MEAN_MOTION_DOT": 9.235e-05, "MEAN_MOTION_DDOT": 0}, "tle": {"line1": "1 34819U 93036ABJ 25336.77028463  .00009235  00000+0  17732-2 0  9992", "line2": "2 34819  74.0168 161.8196 0016073 255.2958 120.6176 14.63718476880835"}}, "geometry": {"type": "Point", "coordinates": [164.53704506568002, 13.776398113833388]}}, {"type": "Feature", "properties": {"norad_id": 34823, "name": "COSMOS 2251 DEB", "group": "cosmos-2251-debris", "lat": 2.0670244265525137, "lon": 120.44950053026226, "alt_km": 812.3132869337032, "timestamp": "2025-12-03T10:52:57.851573+00:00", "meta": {"OBJECT_NAME": "COSMOS 2251 DEB", "OBJECT_ID": "1993-036ABN", "EPOCH": "2025-12-02T16:43:05.356992", "MEAN_MOTION": 14.54796373, "ECCENTRICITY": 0.0155586, "INCLINATION": 74.0394, "RA_OF_ASC_NODE": 121.2897, "ARG_OF_PERICENTER": 208.51, "MEAN_ANOMALY": 150.7491, "EPHEMERIS_TYPE": 0, "CLASSIFICATION_TYPE": "U", "NORAD_CAT_ID": 34823, "ELEMENT_SET_NO": 999, "REV_AT_EPOCH": 88235, "BSTAR": 0.0012872, "MEAN_MOTION_DOT": 6.466e-05, "MEAN_MOTION_DDOT": 0}, "tle": {"line1": "1 34823U 93036ABN 25336.69658978  .00006466  00000+0  12872-2 0  9991", "line2": "2 34823  74.0394 121.2897 0155586 208.5100 150.7491 14.54796373882357"}}, "geometry": {"type": "Point", "coordinates": [120.44950053026226, 2.0670244265525137]}}, {"type": "Feature", "properties": {"norad_id": 34845, "name": "COSMOS 2251 DEB", "group": "cosmos-2251-debris", "lat": -73.98739737702847, "lon": 79.08446192061092, "alt_km": 737.7539020044087, "timestamp": "2025-12-03T10:52:57.851585+00:00", "meta": {"OBJECT_NAME": "COSMOS 2251 DEB", "OBJECT_ID": "1993-036ABP", "EPOCH": "2025-11-28T06:44:43.474272", "MEAN_MOTION": 14.45815545, "ECCENTRICITY": 0.00217969, "INCLINATION": 74.024, "RA_OF_ASC_NODE": 175.3373, "ARG_OF_PERICENTER": 338.6212, "MEAN_ANOMALY": 21.4033, "EPHEMERIS_TYPE": 0, "CLASSIFICATION_TYPE": "U", "NORAD_CAT_ID": 34845, "ELEMENT_SET_NO": 999, "REV_AT_EPOCH": 87257, "BSTAR": 0.00025523358, "MEAN_MOTION_DOT": 8.81e-06, "MEAN_MOTION_DDOT": 0}, "tle": {"line1": "1 34845U 93036ABP 25332.28105873  .00000881  00000+0  25523-3 0  9990", "line2": "2 34845  74.0240 175.3373 0021796 338.6212  21.4033 14.45815545872576"}}, "geometry": {"type": "Point", "coordinates": [79.08446192061092, -73.98739737702847]}}, {"type": "Feature", "properties": {"norad_id": 34846, "name": "COSMOS 2251 DEB", "group": "cosmos-2251-debris", "lat": 13.141336634360794, "lon": 95.30656645402667, "alt_km": 754.2763242235087, "timestamp": "2025-12-03T10:52:57.851596+00:00", "meta": {"OBJECT_NAME": "COSMOS 2251 DEB", "OBJECT_ID": "1993-036ABQ", "EPOCH": "2025-12-03T00:09:43.315776", "MEAN_MOTION": 14.47104829, "ECCENTRICITY": 0.0025874, "INCLINATION": 74.0308, "RA_OF_ASC_NODE": 279.9747, "ARG_OF_PERICENTER": 347.664, "MEAN_ANOMALY": 12.3882, "EPHEMERIS_TYPE": 0, "CLASSIFICATION_TYPE": "U", "NORAD_CAT_ID": 34846, "ELEMENT_SET_NO": 999, "REV_AT_EPOCH": 87263, "BSTAR": 0.0013419, "MEAN_MOTION_DOT": 4.888e-05, "MEAN_MOTION_DDOT": 0}, "tle": {"line1": "1 34846U 93036ABQ 25337.00675134  .00004888  00000+0  13419-2 0  9999", "line2": "2 34846  74.0308 279.9747 0025874 347.6640  12.3882 14.47104829872630"}}, "geometry": {"type": "Point", "coordinates": [95.30656645402667, 13.141336634360794]}}, {"type": "Feature", "properties": {"norad_id": 34852, "name": "COSMOS 2251 DEB", "group": "cosmos-2251-debris", "lat": -30.584519201119335, "lon": 109.7934832720442, "alt_km": 785.2657457320583, "timestamp": "2025-12-03T10:52:57.851606+00:00", "meta": {"OBJECT_NAME": "COSMOS 2251 DEB", "OBJECT_ID": "1993-036ABW", "EPOCH": "2025-12-02T05:29:46.536576", "MEAN_MOTION": 14.36991388, "ECCENTRICITY": 0.0015746, "INCLINATION": 74.0326, "RA_OF_ASC_NODE": 282.3019, "ARG_OF_PERICENTER": 28.2884, "MEAN_ANOMALY": 331.9121, "EPHEMERIS_TYPE": 0, "CLASSIFICATION_TYPE": "U", "NORAD_CAT_ID": 34852, "ELEMENT_SET_NO": 999, "REV_AT_EPOCH": 87383, "BSTAR": 0.00017468, "MEAN_MOTION_DOT": 4.92e-06, "MEAN_MOTION_DDOT": 0}, "tle": {"line1": "1 34852U 93036ABW 25336.22901084  .00000492  00000+0  17468-3 0  9991", "line2": "2 34852  74.0326 282.3019 0015746  28.2884 331.9121 14.36991388873837"}}, "geometry": {"type": "Point", "coordinates": [109.7934832720442, -30.584519201119335]}}, {"type": "Feature", "properties": {"norad_id": 34854, "name": "COSMOS 2251 DEB", "group": "cosmos-2251-debris", "lat": -50.80435891936367, "lon": 17.345374664479458, "alt_km": 621.216654540498, "timestamp": "2025-12-03T10:52:57.851617+00:00", "meta": {"OBJECT_NAME": "COSMOS 2251 DEB", "OBJECT_ID": "1993-036ABY", "EPOCH": "2025-12-01T22:02:46.134528", "MEAN_MOTION": 14.76470003, "ECCENTRICITY": 0.00662316, "INCLINATION": 74.0289, "RA_OF_ASC_NODE": 179.791, "ARG_OF_PERICENTER": 293.6475, "MEAN_ANOMALY": 65.7756, "EPHEMERIS_TYPE": 0, "CLASSIFICATION_TYPE": "U", "NORAD_CAT_ID": 34854, "ELEMENT_SET_NO": 999, "REV_AT_EPOCH": 71722, "BSTAR": 0.00065989077, "MEAN_MOTION_DOT": 4.729e-05, "MEAN_MOTION_DDOT": 0}, "tle": {"line1": "1 34854U 93036ABY 25335.91858952  .00004729  00000+0  65989-3 0  9991", "line2": "2 34854  74.0289 179.7910 0066231 293.6475  65.7756 14.76470003717221"}}, "geometry": {"type": "Point", "coordinates": [17.345374664479458, -50.80435891936367]}}, {"type": "Feature", "properties": {"norad_id": 34856, "name": "COSMOS 2251 DEB", "group": "cosmos-2251-debris", "lat": 52.70985089723262, "lon": 126.07777720369828, "alt_km": 569.5613258735375, "timestamp": "2025-12-03T10:52:57.851629+00:00", "meta": {"OBJECT_NAME": "COSMOS 2251 DEB", "OBJECT_ID": "1993-036ACA", "EPOCH": "2025-12-02T11:02:06.604224", "MEAN_MOTION": 15.05140167, "ECCENTRICITY": 0.00347835, "INCLINATION": 73.9965, "RA_OF_ASC_NODE": 105.9765, "ARG_OF_PERICENTER": 243.8774, "MEAN_ANOMALY": 190.0896, "EPHEMERIS_TYPE": 0, "CLASSIFICATION_TYPE": "U", "NORAD_CAT_ID": 34856, "ELEMENT_SET_NO": 999, "REV_AT_EPOCH": 88957, "BSTAR": 0.0024540063, "MEAN_MOTION_DOT": 0.00035572, "MEAN_MOTION_DDOT": 0}, "tle": {"line1": "1 34856U 93036ACA 25336.45979866  .00035572  00000+0  24540-2 0  9998", "line2": "2 34856  73.9965 105.9765 0034783 243.8774 190.0896 15.05140167889570"}}, "geometry": {"type": "Point", "coordinates": [126.07777720369828, 52.70985089723262]}}, {"type": "Feature", "properties": {"norad_id": 34857, "name": "COSMOS 2251 DEB", "group": "cosmos-2251-debris", "lat": -9.650897770609832, "lon": -52.66659991139231, "alt_km": 677.903974825862, "timestamp": "2025-12-03T10:52:57.851640+00:00", "meta": {"OBJECT_NAME": "COSMOS 2251 DEB", "OBJECT_ID": "1993-036ACB", "EPOCH": "2025-12-03T04:15:06.733728", "MEAN_MOTION": 14.58719635, "ECCENTRICITY": 0.006625, "INCLINATION": 74.0143, "RA_OF_ASC_NODE": 125.0659, "ARG_OF_PERICENTER": 251.1934, "MEAN_ANOMALY": 289.1001, "EPHEMERIS_TYPE": 0, "CLASSIFICATION_TYPE": "U", "NORAD_CAT_ID": 34857, "ELEMENT_SET_NO": 999, "REV_AT_EPOCH": 87761, "BSTAR": 0.0016306, "MEAN_MOTION_DOT": 7.823e-05, "MEAN_MOTION_DDOT": 0}, "tle": {"line1": "1 34857U 93036ACB 25337.17716127  .00007823  00000+0  16306-2 0  9997", "line2": "2 34857  74.0143 125.0659 0066250 251.1934 289.1001 14.58719635877619"}}, "geometry": {"type": "Point", "coordinates": [-52.66659991139231, -9.650897770609832]}}, {"type": "Feature", "properties": {"norad_id": 34859, "name": "COSMOS 2251 DEB", "group": "cosmos-2251-debris", "lat": 60.76886223658598, "lon": 148.1711149661763, "alt_km": 526.0111339549512, "timestamp": "2025-12-03T10:52:57.851651+00:00", "meta": {"OBJECT_NAME": "COSMOS 2251 DEB", "OBJECT_ID": "1993-036ACD", "EPOCH": "2025-12-03T02:43:55.274016", "MEAN_MOTION": 15.12200295, "ECCENTRICITY": 0.0004652, "INCLINATION": 74.035, "RA_OF_ASC_NODE": 359.644, "ARG_OF_PERICENTER": 317.511, "MEAN_ANOMALY": 109.1572, "EPHEMERIS_TYPE": 0, "CLASSIFICATION_TYPE": "U", "NORAD_CAT_ID": 34859, "ELEMENT_SET_NO": 999, "REV_AT_EPOCH": 88213, "BSTAR": 0.0062158, "MEAN_MOTION_DOT": 0.00108986, "MEAN_MOTION_DDOT": 0}, "tle": {"line1": "1 34859U 93036ACD 25337.11383419  .00108986  00000+0  62158-2 0  9995", "line2": "2 34859  74.0350 359.6440 0004652 317.5110 109.1572 15.12200295882130"}}, "geometry": {"type": "Point", "coordinates": [148.1711149661763, 60.76886223658598]}}]}